0 TIROS 1
1    29U 60002B   20126.56692049 -.00000129  00000-0  11788-4 0  9993
2    29  48.3781 151.0121 0023537  47.9747 312.3164 14.74353857212331
0 TRANSIT 2A
1    45U 60007A   20127.10128350 -.00000050  00000-0  14572-4 0  9993
2    45  66.6924 132.5405 0257792 344.8340  14.5130 14.33674851116635
0 SOLRAD 1 (GREB)
1    46U 60007B   20127.09287344  .00000006  00000-0  24408-4 0  9990
2    46  66.6889 160.9665 0208027 164.8506 195.8964 14.49292861132966
0 THOR ABLESTAR R/B
1    47U 60007C   20126.84006816 -.00000079 +00000-0 +77084-5 0  9996
2    47 066.6654 268.9662 0231452 332.7776 026.1344 14.42084207128538
